{"type":"FeatureCollection","source":"Natural Earth 1:10m lakes (ne_10m_lakes, public domain), github.com/nvkelso/natural-earth-vector","features":[{"type":"Feature","properties":{"name":"Lake Michigan"},"geometry":{"type":"Polygon","coordinates":[[[-84.77451,45.799934],[-84.785401,45.790809],[-84.792613,45.779917],[-84.802916,45.770498],[-84.822933,45.765199],[-84.956427,45.769614],[-84.9944,45.77874],[-84.9944,45.771969],[-84.979976,45.763433],[-84.945388,45.737234],[-84.942444,45.731641],[-84.955102,45.725754],[-84.9944,45.683071],[-85.054008,45.650986],[-85.082267,45.631263],[-85.103609,45.600649],[-85.110526,45.563854],[-85.104198,45.527058],[-85.089038,45.494678],[-85.069463,45.470835],[-85.038113,45.446403],[-85.021187,45.439044],[-84.930081,45.429035],[-84.911095,45.422559],[-84.935674,45.395772],[-84.985863,45.38282],[-85.041792,45.379288],[-85.130249,45.383409],[-85.174403,45.376933],[-85.33439,45.315705],[-85.367801,45.293628],[-85.391644,45.26478],[-85.399298,45.227101],[-85.377956,45.101114],[-85.392674,45.009861],[-85.424171,44.930088],[-85.46862,44.858557],[-85.534705,44.774369],[-85.543389,44.767305],[-85.555458,44.765244],[-85.565908,44.769071],[-85.569882,44.77643],[-85.567527,44.78585],[-85.553103,44.803806],[-85.550159,44.814403],[-85.549129,44.836775],[-85.545597,44.843839],[-85.5219,44.861501],[-85.509684,44.879752],[-85.501148,44.900652],[-85.496143,44.923318],[-85.494672,44.946572],[-85.492464,44.958053],[-85.482603,44.970121],[-85.480395,44.980719],[-85.48481,44.993082],[-85.495702,45.00103],[-85.509243,45.002796],[-85.5219,44.998086],[-85.527346,44.988666],[-85.531614,44.973359],[-85.535588,44.946572],[-85.539121,44.934798],[-85.547951,44.925672],[-85.569734,44.908599],[-85.561639,44.907716],[-85.542359,44.90124],[-85.551189,44.891821],[-85.572825,44.879752],[-85.577093,44.871509],[-85.581803,44.842073],[-85.587102,44.826766],[-85.600937,44.812342],[-85.603733,44.797035],[-85.610062,44.787027],[-85.628018,44.795564],[-85.635966,44.805278],[-85.653628,44.834125],[-85.659515,44.854436],[-85.645533,44.88505],[-85.607119,44.949516],[-85.602703,44.96394],[-85.603881,44.977481],[-85.610504,44.988078],[-85.61904,44.990727],[-85.645386,44.983662],[-85.637438,45.001324],[-85.623014,45.024579],[-85.605058,45.044596],[-85.586807,45.053132],[-85.579154,45.061374],[-85.585483,45.080214],[-85.603881,45.114654],[-85.603439,45.144091],[-85.588721,45.154393],[-85.571206,45.157631],[-85.562817,45.165579],[-85.555458,45.181769],[-85.542947,45.199725],[-85.540445,45.213266],[-85.562817,45.216504],[-85.590193,45.196487],[-85.604911,45.19531],[-85.617863,45.195899],[-85.629932,45.194427],[-85.642001,45.18589],[-85.69322,45.114654],[-85.708674,45.101114],[-85.752387,45.071088],[-85.761513,45.062552],[-85.766811,45.045184],[-85.819355,44.965117],[-85.831424,44.954226],[-85.847173,44.949516],[-85.864099,44.953931],[-85.894271,44.973065],[-85.909136,44.977481],[-85.91679,44.978364],[-85.929153,44.982779],[-85.936806,44.983662],[-85.947109,44.981602],[-85.950053,44.976597],[-85.950642,44.970121],[-85.95388,44.96394],[-85.988909,44.923023],[-86.001125,44.91537],[-86.009367,44.91537],[-86.016579,44.917725],[-86.022761,44.920668],[-86.028354,44.922434],[-86.059703,44.922434],[-86.076482,44.916547],[-86.080751,44.903006],[-86.076777,44.871509],[-86.089876,44.782023],[-86.083547,44.765244],[-86.092378,44.753469],[-86.103122,44.747288],[-86.116221,44.744933],[-86.132117,44.74405],[-86.141831,44.745227],[-86.158168,44.75082],[-86.166116,44.751703],[-86.173034,44.749054],[-86.189224,44.73934],[-86.226166,44.730803],[-86.25472,44.713436],[-86.269585,44.688415],[-86.258694,44.658684],[-86.24162,44.634546],[-86.23382,44.610114],[-86.234114,44.585388],[-86.252365,44.518861],[-86.258694,44.50797],[-86.263698,44.495607],[-86.263992,44.463815],[-86.268555,44.44998],[-86.254131,44.4176],[-86.267525,44.374623],[-86.291662,44.335472],[-86.337289,44.275717],[-86.381149,44.198299],[-86.412646,44.161798],[-86.488739,44.112639],[-86.518323,44.083202],[-86.521855,44.045229],[-86.511405,44.029039],[-86.480939,43.999014],[-86.469458,43.977231],[-86.45945,43.968106],[-86.45268,43.958098],[-86.461511,43.935137],[-86.459891,43.923657],[-86.453563,43.908056],[-86.436784,43.822101],[-86.441935,43.785012],[-86.467251,43.75116],[-86.522002,43.699057],[-86.539664,43.666677],[-86.542902,43.627527],[-86.53569,43.605744],[-86.513466,43.570126],[-86.504929,43.539512],[-86.356275,43.2581],[-86.337436,43.243382],[-86.324778,43.254273],[-86.255456,43.270463],[-86.261196,43.256922],[-86.276797,43.243382],[-86.296078,43.233079],[-86.313004,43.228958],[-86.327133,43.222776],[-86.324042,43.207175],[-86.272676,43.103264],[-86.263992,43.063525],[-86.252954,43.039093],[-86.23956,43.016427],[-86.227638,43.003769],[-86.227197,42.999648],[-86.22808,42.996999],[-86.229699,42.99641],[-86.227638,42.99641],[-86.230876,42.995527],[-86.233525,42.995527],[-86.23485,42.994349],[-86.234409,42.989934],[-86.22234,42.964324],[-86.219249,42.709405],[-86.273117,42.471853],[-86.302407,42.39679],[-86.378941,42.255201],[-86.492566,42.129508],[-86.602952,41.940232],[-86.656527,41.87606],[-86.720992,41.824546],[-86.780748,41.798642],[-86.789874,41.787457],[-86.801207,41.777154],[-87.029633,41.681191],[-87.201689,41.634976],[-87.291912,41.627911],[-87.385814,41.63998],[-87.407744,41.646162],[-87.423051,41.653815],[-87.430116,41.666767],[-87.42673,41.687961],[-87.458816,41.678542],[-87.493698,41.69797],[-87.577592,41.788634],[-87.594665,41.820131],[-87.618509,41.893428],[-87.648387,41.944647],[-87.661339,42.032956],[-87.667079,42.051501],[-87.675615,42.070635],[-87.68062,42.078583],[-87.687537,42.085059],[-87.723008,42.096833],[-87.728454,42.102132],[-87.732722,42.108313],[-87.742142,42.115967],[-87.751561,42.125092],[-87.75583,42.136572],[-87.75789,42.14717],[-87.763041,42.157178],[-87.796893,42.205748],[-87.812789,42.240189],[-87.822503,42.279339],[-87.826183,42.354991],[-87.824564,42.366176],[-87.821031,42.374419],[-87.816321,42.379423],[-87.8122,42.38531],[-87.803517,42.482745],[-87.810434,42.568699],[-87.808079,42.578413],[-87.804105,42.589304],[-87.802339,42.600196],[-87.810287,42.617563],[-87.811906,42.630515],[-87.811759,42.644056],[-87.810434,42.653476],[-87.801456,42.672021],[-87.780409,42.704106],[-87.770106,42.771516],[-87.771284,42.789766],[-87.783058,42.811844],[-87.824564,42.85276],[-87.834425,42.86689],[-87.838252,42.877193],[-87.841195,42.958437],[-87.84929,42.981692],[-87.865627,43.003769],[-87.893003,43.009362],[-87.90051,43.022608],[-87.895653,43.04027],[-87.875194,43.075888],[-87.872692,43.083836],[-87.871809,43.096199],[-87.876224,43.102087],[-87.895358,43.114156],[-87.899774,43.12387],[-87.8958,43.146536],[-87.888441,43.162137],[-87.885055,43.178033],[-87.892856,43.202465],[-87.901981,43.220127],[-87.906102,43.231607],[-87.90728,43.267225],[-87.878727,43.342877],[-87.871809,43.37349],[-87.807932,43.466215],[-87.793361,43.505954],[-87.803517,43.53804],[-87.798512,43.561883],[-87.787621,43.581606],[-87.725952,43.662556],[-87.700489,43.70936],[-87.707995,43.71613],[-87.702255,43.726727],[-87.703433,43.729671],[-87.707995,43.737325],[-87.699312,43.747627],[-87.696221,43.756753],[-87.696957,43.766761],[-87.700489,43.778241],[-87.722714,43.807089],[-87.724774,43.811799],[-87.732133,43.823279],[-87.733016,43.848889],[-87.724333,43.925423],[-87.720947,43.935432],[-87.703286,43.957215],[-87.700489,43.96634],[-87.697693,43.991361],[-87.690186,44.012261],[-87.637642,44.100275],[-87.622335,44.117349],[-87.60747,44.126474],[-87.550216,44.148257],[-87.531083,44.161798],[-87.513568,44.179165],[-87.500616,44.198887],[-87.495759,44.220376],[-87.501941,44.236272],[-87.542857,44.278071],[-87.550216,44.312806],[-87.548008,44.324287],[-87.538736,44.344009],[-87.533437,44.359316],[-87.519455,44.38051],[-87.51607,44.390813],[-87.513862,44.413773],[-87.485456,44.52622],[-87.466028,44.570081],[-87.440418,44.606876],[-87.392437,44.651031],[-87.382576,44.670753],[-87.368594,44.687532],[-87.365356,44.692536],[-87.363884,44.704016],[-87.360351,44.715791],[-87.329296,44.781434],[-87.327971,44.803511],[-87.347988,44.812931],[-87.37139,44.818818],[-87.390377,44.833242],[-87.419371,44.867683],[-87.450132,44.886228],[-87.472946,44.876514],[-87.493257,44.86415],[-87.51607,44.875042],[-87.554632,44.845311],[-87.570233,44.837363],[-87.56464,44.854731],[-87.589661,44.855908],[-87.617626,44.844428],[-87.643088,44.827355],[-87.660161,44.812931],[-87.696221,44.772309],[-87.728454,44.723739],[-87.719476,44.708432],[-87.730367,44.691947],[-87.746999,44.676935],[-87.75583,44.66516],[-87.767163,44.656624],[-87.838252,44.634252],[-87.882848,44.610409],[-87.904336,44.59363],[-87.913462,44.576557],[-87.92244,44.553008],[-87.94437,44.54241],[-87.971304,44.541233],[-87.995295,44.545354],[-88.012515,44.553891],[-88.032679,44.567726],[-88.043423,44.580678],[-88.033268,44.586565],[-88.02429,44.616296],[-88.020316,44.638373],[-88.01487,44.647204],[-88.0081,44.653974],[-87.99868,44.666926],[-87.99191,44.670753],[-87.989113,44.675169],[-87.995,44.690476],[-87.995295,44.696363],[-87.988377,44.720206],[-87.982637,44.729332],[-87.971746,44.740517],[-87.949816,44.754941],[-87.938777,44.764067],[-87.93392,44.774958],[-87.932006,44.786144],[-87.927002,44.798802],[-87.920379,44.81087],[-87.913462,44.820585],[-87.858415,44.866505],[-87.840754,44.893587],[-87.851939,44.922434],[-87.822945,44.949222],[-87.777171,44.963057],[-87.687537,44.977481],[-87.666196,44.984251],[-87.648534,44.993376],[-87.636612,45.007211],[-87.632197,45.028406],[-87.633374,45.049894],[-87.632638,45.06108],[-87.629106,45.069322],[-87.602466,45.098464],[-87.598198,45.107884],[-87.606881,45.152333],[-87.603643,45.173527],[-87.560372,45.190895],[-87.344897,45.422559],[-87.339452,45.433451],[-87.332975,45.457883],[-87.327824,45.467302],[-87.308249,45.482904],[-87.29986,45.491146],[-87.282198,45.539127],[-87.271159,45.554729],[-87.236277,45.592996],[-87.212728,45.610363],[-87.173577,45.668942],[-87.155327,45.679833],[-87.111761,45.69043],[-87.094393,45.700145],[-87.07997,45.73223],[-87.07732,45.734291],[-87.071139,45.77874],[-87.056273,45.818185],[-87.042732,45.838496],[-87.026101,45.847032],[-87.018153,45.858218],[-86.999461,45.909437],[-86.987981,45.923273],[-86.97076,45.923273],[-86.964873,45.912675],[-86.965462,45.89884],[-86.968111,45.888538],[-86.975912,45.875291],[-86.996517,45.852331],[-87.002257,45.840851],[-87.00211,45.822894],[-86.995781,45.808765],[-86.987686,45.796696],[-86.981652,45.78551],[-86.979886,45.768731],[-86.987981,45.72075],[-86.983712,45.704854],[-86.974293,45.69308],[-86.964873,45.689842],[-86.960605,45.700145],[-86.95251,45.706915],[-86.914243,45.71604],[-86.888338,45.718984],[-86.871413,45.723988],[-86.856989,45.731347],[-86.850807,45.740767],[-86.84389,45.756368],[-86.81725,45.785216],[-86.81725,45.799934],[-86.804739,45.806116],[-86.795467,45.81318],[-86.788108,45.822306],[-86.782515,45.83408],[-86.791934,45.855274],[-86.779129,45.865283],[-86.756758,45.868226],[-86.73836,45.868226],[-86.701859,45.849387],[-86.677427,45.842322],[-86.655496,45.850859],[-86.641514,45.8644],[-86.626943,45.874702],[-86.610459,45.88265],[-86.590736,45.888538],[-86.569984,45.892364],[-86.557179,45.890304],[-86.547612,45.882356],[-86.536132,45.868226],[-86.568806,45.802289],[-86.566451,45.792575],[-86.563213,45.79022],[-86.562036,45.78551],[-86.563213,45.7808],[-86.566451,45.77874],[-86.57381,45.779917],[-86.587204,45.784627],[-86.594122,45.78551],[-86.618259,45.78551],[-86.628562,45.784627],[-86.62974,45.781683],[-86.628562,45.777268],[-86.633714,45.768437],[-86.637393,45.755779],[-86.639159,45.751658],[-86.642544,45.749892],[-86.64799,45.749598],[-86.654025,45.74842],[-86.659029,45.744593],[-86.669479,45.715746],[-86.676396,45.706915],[-86.708924,45.684838],[-86.712309,45.673652],[-86.700534,45.655401],[-86.689937,45.644804],[-86.659029,45.628025],[-86.64225,45.616251],[-86.6318,45.610363],[-86.621792,45.608009],[-86.611342,45.612718],[-86.611047,45.623315],[-86.615316,45.633913],[-86.617965,45.638917],[-86.619142,45.643921],[-86.624294,45.653046],[-86.625471,45.658934],[-86.622528,45.666587],[-86.615904,45.667764],[-86.608545,45.667176],[-86.603688,45.668942],[-86.584113,45.704854],[-86.568953,45.718689],[-86.537162,45.726932],[-86.532011,45.733996],[-86.529803,45.744005],[-86.529361,45.755191],[-86.524357,45.761961],[-86.512435,45.764022],[-86.488298,45.765199],[-86.447381,45.77874],[-86.441494,45.78345],[-86.433104,45.79493],[-86.426334,45.799934],[-86.411469,45.803172],[-86.373937,45.806704],[-86.357894,45.813475],[-86.350535,45.819656],[-86.357894,45.826721],[-86.331402,45.883239],[-86.298138,45.926511],[-86.251923,45.954475],[-86.079867,45.973609],[-86.042042,45.970665],[-85.978312,45.955064],[-85.919145,45.929749],[-85.923266,45.953003],[-85.915907,45.968016],[-85.897509,45.975669],[-85.790213,45.986855],[-85.66187,45.984795],[-85.64465,45.991565],[-85.630962,46.007166],[-85.610651,46.038663],[-85.545744,46.098125],[-85.525285,46.106956],[-85.445513,46.101657],[-85.414604,46.11402],[-85.405185,46.115198],[-85.394146,46.110194],[-85.382077,46.101657],[-85.37045,46.095476],[-85.360441,46.098125],[-85.339542,46.109311],[-85.3182,46.103718],[-85.281699,46.080463],[-85.260946,46.075164],[-85.192948,46.073693],[-85.170577,46.069277],[-85.117885,46.046317],[-85.02104,46.025123],[-85.004114,46.014525],[-84.968348,45.984206],[-84.956132,45.978024],[-84.946713,45.971548],[-84.925077,45.942995],[-84.914774,45.936519],[-84.894905,45.934753],[-84.871355,45.928277],[-84.85178,45.916797],[-84.843538,45.89884],[-84.824404,45.880295],[-84.780839,45.862339],[-84.77451,45.799934]],[[-86.994751,45.223863],[-86.981652,45.244469],[-86.988128,45.253888],[-86.99166,45.262425],[-86.991807,45.270667],[-86.987981,45.279204],[-86.982977,45.292156],[-86.990041,45.295688],[-87.015357,45.292156],[-87.045823,45.29245],[-87.057598,45.296571],[-87.071139,45.30658],[-87.078203,45.299515],[-87.08203,45.292745],[-87.083796,45.284797],[-87.084238,45.275377],[-87.087917,45.269784],[-87.096454,45.268018],[-87.105579,45.267135],[-87.111466,45.26478],[-87.128687,45.220625],[-87.131336,45.206496],[-87.13899,45.197076],[-87.172694,45.187951],[-87.180348,45.178826],[-87.187412,45.168229],[-87.203455,45.169112],[-87.221706,45.174116],[-87.234952,45.175588],[-87.248493,45.166168],[-87.259384,45.150272],[-87.266449,45.131139],[-87.271012,45.09817],[-87.276016,45.088456],[-87.289557,45.073149],[-87.290293,45.069028],[-87.288674,45.056959],[-87.289557,45.053132],[-87.294119,45.052249],[-87.305747,45.054015],[-87.310015,45.053132],[-87.368741,45.000441],[-87.393173,44.964823],[-87.406272,44.922434],[-87.399207,44.882695],[-87.373892,44.845017],[-87.337391,44.82029],[-87.296474,44.820585],[-87.280432,44.830299],[-87.231567,44.87828],[-87.224502,44.887994],[-87.219204,44.907128],[-87.214494,44.91537],[-87.205074,44.921846],[-87.183439,44.929499],[-87.173577,44.936564],[-87.197126,44.954815],[-87.184174,44.986312],[-87.138842,45.039003],[-87.129717,45.060197],[-87.122652,45.069322],[-87.111466,45.073149],[-87.104402,45.071088],[-87.095424,45.067556],[-87.087476,45.06579],[-87.084238,45.069322],[-87.085268,45.088161],[-87.083502,45.091988],[-87.07732,45.101114],[-87.071875,45.104057],[-87.064074,45.104646],[-87.056273,45.106412],[-87.049503,45.114654],[-87.087917,45.142619],[-87.097779,45.155571],[-87.084091,45.159986],[-87.071139,45.158515],[-87.043174,45.148801],[-87.04597,45.15822],[-87.054949,45.172644],[-87.056862,45.182358],[-87.055096,45.192366],[-87.043174,45.223863],[-87.047295,45.230339],[-87.055096,45.235932],[-87.057009,45.240936],[-87.043174,45.244469],[-87.033018,45.242114],[-86.994751,45.223863]],[[-85.487754,45.635384],[-85.487754,45.650103],[-85.498057,45.678067],[-85.500853,45.693669],[-85.499087,45.704854],[-85.496143,45.715451],[-85.495702,45.726049],[-85.500853,45.737234],[-85.506005,45.745182],[-85.504974,45.752541],[-85.498645,45.759312],[-85.487754,45.765199],[-85.503944,45.770203],[-85.539121,45.773736],[-85.555458,45.77874],[-85.555899,45.760195],[-85.558107,45.747537],[-85.562375,45.736646],[-85.569734,45.724282],[-85.578271,45.713685],[-85.587396,45.70456],[-85.594608,45.694257],[-85.605941,45.65128],[-85.620365,45.631263],[-85.625075,45.615073],[-85.604175,45.597117],[-85.572972,45.591524],[-85.536177,45.598589],[-85.504238,45.614485],[-85.487754,45.635384]],[[-85.447573,45.801995],[-85.445513,45.806116],[-85.446985,45.81318],[-85.452725,45.813769],[-85.460378,45.812297],[-85.467296,45.813475],[-85.482161,45.823777],[-85.500853,45.83408],[-85.504533,45.835258],[-85.507918,45.835552],[-85.511156,45.836729],[-85.514394,45.840851],[-85.518368,45.820245],[-85.506005,45.804938],[-85.485252,45.795518],[-85.463469,45.792575],[-85.457729,45.793752],[-85.452136,45.797285],[-85.447573,45.801995]],[[-85.833485,45.398716],[-85.82745,45.416083],[-85.835398,45.432568],[-85.850263,45.446991],[-85.87028,45.460532],[-85.874843,45.462887],[-85.879405,45.462593],[-85.884998,45.457294],[-85.84158,45.404309],[-85.833485,45.398716]],[[-86.091053,45.031938],[-86.076777,45.046362],[-86.086491,45.047245],[-86.095322,45.0496],[-86.103564,45.053721],[-86.110923,45.059314],[-86.129321,45.054898],[-86.143597,45.041652],[-86.15022,45.025168],[-86.145658,45.011038],[-86.123728,45.001618],[-86.106066,45.012804],[-86.091053,45.031938]],[[-86.854045,45.387235],[-86.852868,45.40372],[-86.864495,45.415789],[-86.883481,45.416672],[-86.90291,45.411079],[-86.920424,45.409607],[-86.933376,45.422559],[-86.943826,45.430801],[-86.95251,45.423148],[-86.958544,45.407547],[-86.960605,45.391945],[-86.956631,45.366336],[-86.960016,45.357505],[-86.974293,45.347496],[-86.964579,45.342786],[-86.951774,45.343375],[-86.927047,45.347496],[-86.864495,45.340432],[-86.869205,45.35044],[-86.871854,45.354267],[-86.86214,45.369868],[-86.854045,45.387235]],[[-85.974338,45.087278],[-85.988173,45.096992],[-85.985671,45.108767],[-85.977429,45.121719],[-85.974338,45.134377],[-85.981697,45.146446],[-85.994207,45.154393],[-86.008926,45.160869],[-86.022172,45.169112],[-86.037773,45.168523],[-86.048812,45.161164],[-86.063089,45.14203],[-86.029531,45.089928],[-86.004069,45.074032],[-85.974338,45.087278]]]}}]}
